[{"OBJECT_NAME":"SHERPA-FX2 & TAGSAT-2","OBJECT_ID":"2021-059CH","EPOCH":"2026-03-09T23:13:51.251520","MEAN_MOTION":15.52139464,"ECCENTRICITY":0.0006571,"INCLINATION":97.6905,"RA_OF_ASC_NODE":255.7235,"ARG_OF_PERICENTER":345.3561,"MEAN_ANOMALY":14.7499,"EPHEMERIS_TYPE":0,"CLASSIFICATION_TYPE":"U","NORAD_CAT_ID":48958,"ELEMENT_SET_NO":999,"REV_AT_EPOCH":26201,"BSTAR":0.0003861171,"MEAN_MOTION_DOT":0.00023295,"MEAN_MOTION_DDOT":0},{"OBJECT_NAME":"STARLINK-36627","OBJECT_ID":"2026-020U","EPOCH":"2026-03-09T22:00:01.999584","MEAN_MOTION":15.68605288,"ECCENTRICITY":0.00014613,"INCLINATION":42.9998,"RA_OF_ASC_NODE":140.6895,"ARG_OF_PERICENTER":272.8635,"MEAN_ANOMALY":68.5573,"EPHEMERIS_TYPE":0,"CLASSIFICATION_TYPE":"U","NORAD_CAT_ID":67635,"ELEMENT_SET_NO":999,"REV_AT_EPOCH":604,"BSTAR":-0.018966671,"MEAN_MOTION_DOT":-0.01959305,"MEAN_MOTION_DDOT":0}]
